[{"Terminal Number":"CS80613","Group":"Nevada Accounts","Market Partner":"Hella ATMs","Cust #":"02-316K900","Location":"Aces Tattoo","Address":"675 S Virginia St ","City":"Reno","State":"NV","Zip":"89501","Status":"Activated","Error Time":"6/27/21 11:59:12 AM","Error Code":"2000400","Error Description":"Vault Door is Open"},{"Terminal Number":"CS80613","Group":"Nevada Accounts","Market Partner":"Hella ATMs","Cust #":"02-316K900","Location":"Aces Tattoo","Address":"675 S Virginia St ","City":"Reno","State":"NV","Zip":"89501","Status":"Activated","Error Time":"7/9/21 3:36:57 PM","Error Code":"2000400","Error Description":"Vault Door is Open"},{"Terminal Number":"CS80613","Group":"Nevada Accounts","Market Partner":"Hella ATMs","Cust #":"02-316K900","Location":"Aces Tattoo","Address":"675 S Virginia St ","City":"Reno","State":"NV","Zip":"89501","Status":"Activated","Error Time":"7/16/21 12:19:25 PM","Error Code":"2000400","Error Description":"Vault Door is Open"},{"Terminal Number":"CS80613","Group":"Nevada Accounts","Market Partner":"Hella ATMs","Cust #":"02-316K900","Location":"Aces Tattoo","Address":"675 S Virginia St ","City":"Reno","State":"NV","Zip":"89501","Status":"Activated","Error Time":"7/22/21 4:07:20 PM","Error Code":"2000400","Error Description":"Vault Door is Open"},{"Terminal Number":"CS80613","Group":"Nevada Accounts","Market Partner":"Hella ATMs","Cust #":"02-316K900","Location":"Aces Tattoo","Address":"675 S Virginia St ","City":"Reno","State":"NV","Zip":"89501","Status":"Activated","Error Time":"7/25/21 4:40:49 PM","Error Code":"REVERSAL","Error Description":"Reversal Trx"},{"Terminal Number":"CS80613","Group":"Nevada Accounts","Market Partner":"Hella ATMs","Cust #":"02-316K900","Location":"Aces Tattoo","Address":"675 S Virginia St ","City":"Reno","State":"NV","Zip":"89501","Status":"Activated","Error Time":"7/29/21 5:12:20 PM","Error Code":"2000400","Error Description":"Vault Door is Open"},{"Terminal Number":"CS80613","Group":"Nevada Accounts","Market Partner":"Hella ATMs","Cust #":"02-316K900","Location":"Aces Tattoo","Address":"675 S Virginia St ","City":"Reno","State":"NV","Zip":"89501","Status":"Activated","Error Time":"8/6/21 12:15:54 PM","Error Code":"2000400","Error Description":"Vault Door is Open"},{"Terminal Number":"CS80613","Group":"Nevada Accounts","Market Partner":"Hella ATMs","Cust #":"02-316K900","Location":"Aces Tattoo","Address":"675 S Virginia St ","City":"Reno","State":"NV","Zip":"89501","Status":"Activated","Error Time":"8/12/21 1:29:11 PM","Error Code":"2000400","Error Description":"Vault Door is Open"},{"Terminal Number":"CS80613","Group":"Nevada Accounts","Market Partner":"Hella ATMs","Cust #":"02-316K900","Location":"Aces Tattoo","Address":"675 S Virginia St ","City":"Reno","State":"NV","Zip":"89501","Status":"Activated","Error Time":"8/17/21 7:01:58 PM","Error Code":"REVERSAL","Error Description":"Reversal Trx"},{"Terminal Number":"CS80613","Group":"Nevada Accounts","Market Partner":"Hella ATMs","Cust #":"02-316K900","Location":"Aces Tattoo","Address":"675 S Virginia St ","City":"Reno","State":"NV","Zip":"89501","Status":"Activated","Error Time":"8/17/21 7:03:04 PM","Error Code":"4004700","Error Description":"Cassette feed failure"},{"Terminal Number":"CS80613","Group":"Nevada Accounts","Market Partner":"Hella ATMs","Cust #":"02-316K900","Location":"Aces Tattoo","Address":"675 S Virginia St ","City":"Reno","State":"NV","Zip":"89501","Status":"Activated","Error Time":"8/28/21 8:05:51 PM","Error Code":"F000100","Error Description":"Number of Bill is not inputted"},{"Terminal Number":"CS80613","Group":"Nevada Accounts","Market Partner":"Hella ATMs","Cust #":"02-316K900","Location":"Aces Tattoo","Address":"675 S Virginia St ","City":"Reno","State":"NV","Zip":"89501","Status":"Activated","Error Time":"9/12/21 1:36:34 PM","Error Code":"2000400","Error Description":"Vault Door is Open"},{"Terminal Number":"CS80613","Group":"Nevada Accounts","Market Partner":"Hella ATMs","Cust #":"02-316K900","Location":"Aces Tattoo","Address":"675 S Virginia St ","City":"Reno","State":"NV","Zip":"89501","Status":"Activated","Error Time":"9/20/21 11:25:16 AM","Error Code":"2000400","Error Description":"Vault Door is Open"},{"Terminal Number":"CS80613","Group":"Nevada Accounts","Market Partner":"Hella ATMs","Cust #":"02-316K900","Location":"Aces Tattoo","Address":"675 S Virginia St ","City":"Reno","State":"NV","Zip":"89501","Status":"Activated","Error Time":"10/1/21 2:05:07 PM","Error Code":"2000400","Error Description":"Vault Door is Open"},{"Terminal Number":"CS80613","Group":"Nevada Accounts","Market Partner":"Hella ATMs","Cust #":"02-316K900","Location":"Aces Tattoo","Address":"675 S Virginia St ","City":"Reno","State":"NV","Zip":"89501","Status":"Activated","Error Time":"10/11/21 4:06:06 PM","Error Code":"2000400","Error Description":"Vault Door is Open"},{"Terminal Number":"CS80613","Group":"Nevada Accounts","Market Partner":"Hella ATMs","Cust #":"02-316K900","Location":"Aces Tattoo","Address":"675 S Virginia St ","City":"Reno","State":"NV","Zip":"89501","Status":"Activated","Error Time":"10/25/21 11:52:17 AM","Error Code":"2000400","Error Description":"Vault Door is Open"},{"Terminal Number":"CS80613","Group":"Nevada Accounts","Market Partner":"Hella ATMs","Cust #":"02-316K900","Location":"Aces Tattoo","Address":"675 S Virginia St ","City":"Reno","State":"NV","Zip":"89501","Status":"Activated","Error Time":"11/7/21 6:37:32 PM","Error Code":"9799904","Error Description":"EPP Communication Error"},{"Terminal Number":"CS80613","Group":"Nevada Accounts","Market Partner":"Hella ATMs","Cust #":"02-316K900","Location":"Aces Tattoo","Address":"675 S Virginia St ","City":"Reno","State":"NV","Zip":"89501","Status":"Activated","Error Time":"11/8/21 12:00:24 PM","Error Code":"2000400","Error Description":"Vault Door is Open"},{"Terminal Number":"CS80613","Group":"Nevada Accounts","Market Partner":"Hella ATMs","Cust #":"02-316K900","Location":"Aces Tattoo","Address":"675 S Virginia St ","City":"Reno","State":"NV","Zip":"89501","Status":"Activated","Error Time":"11/18/21 12:42:53 PM","Error Code":"2000400","Error Description":"Vault Door is Open"},{"Terminal Number":"CS80613","Group":"Nevada Accounts","Market Partner":"Hella ATMs","Cust #":"02-316K900","Location":"Aces Tattoo","Address":"675 S Virginia St ","City":"Reno","State":"NV","Zip":"89501","Status":"Activated","Error Time":"11/26/21 11:42:04 AM","Error Code":"2000400","Error Description":"Vault Door is Open"},{"Terminal Number":"CS85718","Group":"","Market Partner":"Elite ATM Services","Cust #":"02-QXI0I9","Location":"Loading Zone Grill","Address":"2975 N Virginia St","City":"Reno","State":"NV","Zip":"89506","Status":"Closed","Error Time":"6/18/21 1:14:05 PM","Error Code":"2000400","Error Description":"Vault Door is Open"},{"Terminal Number":"CS85718","Group":"","Market Partner":"Elite ATM Services","Cust #":"02-QXI0I9","Location":"Loading Zone Grill","Address":"2975 N Virginia St","City":"Reno","State":"NV","Zip":"89506","Status":"Closed","Error Time":"6/18/21 1:25:39 PM","Error Code":"2000400","Error Description":"Vault Door is Open"},{"Terminal Number":"CS85718","Group":"","Market Partner":"Elite ATM Services","Cust #":"02-QXI0I9","Location":"Loading Zone Grill","Address":"2975 N Virginia St","City":"Reno","State":"NV","Zip":"89506","Status":"Closed","Error Time":"6/21/21 9:22:28 AM","Error Code":"2000400","Error Description":"Vault Door is Open"},{"Terminal Number":"CS86396","Group":"Nevada Accounts","Market Partner":"Hella ATMs","Cust #":"02-316K900","Location":"Battle Born Tattoo","Address":"675 Holcomb Ave","City":"Reno","State":"NV","Zip":"89502","Status":"Activated","Error Time":"7/15/21 6:50:11 PM","Error Code":"F000100","Error Description":"Number of Bill is not inputted"},{"Terminal Number":"CS86396","Group":"Nevada Accounts","Market Partner":"Hella ATMs","Cust #":"02-316K900","Location":"Battle Born Tattoo","Address":"675 Holcomb Ave","City":"Reno","State":"NV","Zip":"89502","Status":"Activated","Error Time":"7/16/21 12:33:32 PM","Error Code":"2000400","Error Description":"Vault Door is Open"},{"Terminal Number":"CS86396","Group":"Nevada Accounts","Market Partner":"Hella ATMs","Cust #":"02-316K900","Location":"Battle Born Tattoo","Address":"675 Holcomb Ave","City":"Reno","State":"NV","Zip":"89502","Status":"Activated","Error Time":"7/22/21 4:18:45 PM","Error Code":"2000400","Error Description":"Vault Door is Open"},{"Terminal Number":"CS86396","Group":"Nevada Accounts","Market Partner":"Hella ATMs","Cust #":"02-316K900","Location":"Battle Born Tattoo","Address":"675 Holcomb Ave","City":"Reno","State":"NV","Zip":"89502","Status":"Activated","Error Time":"7/30/21 12:24:26 PM","Error Code":"2000400","Error Description":"Vault Door is Open"},{"Terminal Number":"CS86396","Group":"Nevada Accounts","Market Partner":"Hella ATMs","Cust #":"02-316K900","Location":"Battle Born Tattoo","Address":"675 Holcomb Ave","City":"Reno","State":"NV","Zip":"89502","Status":"Activated","Error Time":"8/12/21 1:40:08 PM","Error Code":"2000400","Error Description":"Vault Door is Open"},{"Terminal Number":"CS86396","Group":"Nevada Accounts","Market Partner":"Hella ATMs","Cust #":"02-316K900","Location":"Battle Born Tattoo","Address":"675 Holcomb Ave","City":"Reno","State":"NV","Zip":"89502","Status":"Activated","Error Time":"8/20/21 11:35:50 AM","Error Code":"2000400","Error Description":"Vault Door is Open"},{"Terminal Number":"CS86396","Group":"Nevada Accounts","Market Partner":"Hella ATMs","Cust #":"02-316K900","Location":"Battle Born Tattoo","Address":"675 Holcomb Ave","City":"Reno","State":"NV","Zip":"89502","Status":"Activated","Error Time":"9/1/21 12:01:30 PM","Error Code":"2000400","Error Description":"Vault Door is Open"},{"Terminal Number":"CS86396","Group":"Nevada Accounts","Market Partner":"Hella ATMs","Cust #":"02-316K900","Location":"Battle Born Tattoo","Address":"675 Holcomb Ave","City":"Reno","State":"NV","Zip":"89502","Status":"Activated","Error Time":"9/12/21 1:48:06 PM","Error Code":"2000400","Error Description":"Vault Door is Open"},{"Terminal Number":"CS86396","Group":"Nevada Accounts","Market Partner":"Hella ATMs","Cust #":"02-316K900","Location":"Battle Born Tattoo","Address":"675 Holcomb Ave","City":"Reno","State":"NV","Zip":"89502","Status":"Activated","Error Time":"9/24/21 3:38:20 PM","Error Code":"2000400","Error Description":"Vault Door is Open"},{"Terminal Number":"CS86396","Group":"Nevada Accounts","Market Partner":"Hella ATMs","Cust #":"02-316K900","Location":"Battle Born Tattoo","Address":"675 Holcomb Ave","City":"Reno","State":"NV","Zip":"89502","Status":"Activated","Error Time":"10/1/21 2:48:38 PM","Error Code":"2000400","Error Description":"Vault Door is Open"},{"Terminal Number":"CS86396","Group":"Nevada Accounts","Market Partner":"Hella ATMs","Cust #":"02-316K900","Location":"Battle Born Tattoo","Address":"675 Holcomb Ave","City":"Reno","State":"NV","Zip":"89502","Status":"Activated","Error Time":"10/13/21 1:59:32 PM","Error Code":"2000400","Error Description":"Vault Door is Open"},{"Terminal Number":"CS86396","Group":"Nevada Accounts","Market Partner":"Hella ATMs","Cust #":"02-316K900","Location":"Battle Born Tattoo","Address":"675 Holcomb Ave","City":"Reno","State":"NV","Zip":"89502","Status":"Activated","Error Time":"10/25/21 11:38:46 AM","Error Code":"2000400","Error Description":"Vault Door is Open"},{"Terminal Number":"CS86396","Group":"Nevada Accounts","Market Partner":"Hella ATMs","Cust #":"02-316K900","Location":"Battle Born Tattoo","Address":"675 Holcomb Ave","City":"Reno","State":"NV","Zip":"89502","Status":"Activated","Error Time":"11/4/21 11:28:54 AM","Error Code":"2000400","Error Description":"Vault Door is Open"},{"Terminal Number":"CS86396","Group":"Nevada Accounts","Market Partner":"Hella ATMs","Cust #":"02-316K900","Location":"Battle Born Tattoo","Address":"675 Holcomb Ave","City":"Reno","State":"NV","Zip":"89502","Status":"Activated","Error Time":"11/26/21 2:04:49 PM","Error Code":"2000400","Error Description":"Vault Door is Open"},{"Terminal Number":"CS85718","Group":"Nevada Accounts","Market Partner":"Hella ATMs","Cust #":"02-316K900","Location":"Loading Zone Grill","Address":"2975 N Virginia St","City":"Reno","State":"NV","Zip":"89506","Status":"Activated","Error Time":"7/9/21 5:00:19 PM","Error Code":"2000400","Error Description":"Vault Door is Open"},{"Terminal Number":"CS85718","Group":"Nevada Accounts","Market Partner":"Hella ATMs","Cust #":"02-316K900","Location":"Loading Zone Grill","Address":"2975 N Virginia St","City":"Reno","State":"NV","Zip":"89506","Status":"Activated","Error Time":"7/9/21 6:50:11 PM","Error Code":"2000400","Error Description":"Vault Door is Open"},{"Terminal Number":"CS85718","Group":"Nevada Accounts","Market Partner":"Hella ATMs","Cust #":"02-316K900","Location":"Loading Zone Grill","Address":"2975 N Virginia St","City":"Reno","State":"NV","Zip":"89506","Status":"Activated","Error Time":"7/11/21 10:38:13 AM","Error Code":"REVERSAL","Error Description":"Reversal Trx"},{"Terminal Number":"CS85718","Group":"Nevada Accounts","Market Partner":"Hella ATMs","Cust #":"02-316K900","Location":"Loading Zone Grill","Address":"2975 N Virginia St","City":"Reno","State":"NV","Zip":"89506","Status":"Activated","Error Time":"7/11/21 10:38:22 AM","Error Code":"9730100","Error Description":"IC CARD DENIAL"},{"Terminal Number":"CS85718","Group":"Nevada Accounts","Market Partner":"Hella ATMs","Cust #":"02-316K900","Location":"Loading Zone Grill","Address":"2975 N Virginia St","City":"Reno","State":"NV","Zip":"89506","Status":"Activated","Error Time":"7/12/21 12:23:06 PM","Error Code":"2000400","Error Description":"Vault Door is Open"},{"Terminal Number":"CS85718","Group":"Nevada Accounts","Market Partner":"Hella ATMs","Cust #":"02-316K900","Location":"Loading Zone Grill","Address":"2975 N Virginia St","City":"Reno","State":"NV","Zip":"89506","Status":"Activated","Error Time":"7/16/21 10:48:52 AM","Error Code":"2000400","Error Description":"Vault Door is Open"},{"Terminal Number":"CS85718","Group":"Nevada Accounts","Market Partner":"Hella ATMs","Cust #":"02-316K900","Location":"Loading Zone Grill","Address":"2975 N Virginia St","City":"Reno","State":"NV","Zip":"89506","Status":"Activated","Error Time":"7/30/21 8:04:55 PM","Error Code":"2000400","Error Description":"Vault Door is Open"},{"Terminal Number":"CS85718","Group":"Nevada Accounts","Market Partner":"Hella ATMs","Cust #":"02-316K900","Location":"Loading Zone Grill","Address":"2975 N Virginia St","City":"Reno","State":"NV","Zip":"89506","Status":"Activated","Error Time":"8/2/21 3:54:23 AM","Error Code":"9741800","Error Description":"When sensing CS4B Dark (Error code 400FFOO is subdivided by location of sensor.)"},{"Terminal Number":"CS85718","Group":"Nevada Accounts","Market Partner":"Hella ATMs","Cust #":"02-316K900","Location":"Loading Zone Grill","Address":"2975 N Virginia St","City":"Reno","State":"NV","Zip":"89506","Status":"Activated","Error Time":"8/2/21 12:14:04 PM","Error Code":"2000400","Error Description":"Vault Door is Open"},{"Terminal Number":"CS85718","Group":"Nevada Accounts","Market Partner":"Hella ATMs","Cust #":"02-316K900","Location":"Loading Zone Grill","Address":"2975 N Virginia St","City":"Reno","State":"NV","Zip":"89506","Status":"Activated","Error Time":"8/2/21 9:37:37 PM","Error Code":"2010400","Error Description":"Receipt paper empty"},{"Terminal Number":"CS85718","Group":"Nevada Accounts","Market Partner":"Hella ATMs","Cust #":"02-316K900","Location":"Loading Zone Grill","Address":"2975 N Virginia St","City":"Reno","State":"NV","Zip":"89506","Status":"Activated","Error Time":"8/3/21 6:15:46 PM","Error Code":"2000400","Error Description":"Vault Door is Open"},{"Terminal Number":"CS85718","Group":"Nevada Accounts","Market Partner":"Hella ATMs","Cust #":"02-316K900","Location":"Loading Zone Grill","Address":"2975 N Virginia St","City":"Reno","State":"NV","Zip":"89506","Status":"Activated","Error Time":"8/10/21 8:30:33 PM","Error Code":"9792309","Error Description":"Card Reader Error"},{"Terminal Number":"CS85718","Group":"Nevada Accounts","Market Partner":"Hella ATMs","Cust #":"02-316K900","Location":"Loading Zone Grill","Address":"2975 N Virginia St","City":"Reno","State":"NV","Zip":"89506","Status":"Activated","Error Time":"8/13/21 10:52:27 AM","Error Code":"2000400","Error Description":"Vault Door is Open"},{"Terminal Number":"CS85718","Group":"Nevada Accounts","Market Partner":"Hella ATMs","Cust #":"02-316K900","Location":"Loading Zone Grill","Address":"2975 N Virginia St","City":"Reno","State":"NV","Zip":"89506","Status":"Activated","Error Time":"8/13/21 9:46:06 PM","Error Code":"9792309","Error Description":"Card Reader Error"},{"Terminal Number":"CS85718","Group":"Nevada Accounts","Market Partner":"Hella ATMs","Cust #":"02-316K900","Location":"Loading Zone Grill","Address":"2975 N Virginia St","City":"Reno","State":"NV","Zip":"89506","Status":"Activated","Error Time":"8/20/21 10:37:55 AM","Error Code":"2000400","Error Description":"Vault Door is Open"},{"Terminal Number":"CS85718","Group":"Nevada Accounts","Market Partner":"Hella ATMs","Cust #":"02-316K900","Location":"Loading Zone Grill","Address":"2975 N Virginia St","City":"Reno","State":"NV","Zip":"89506","Status":"Activated","Error Time":"8/21/21 4:30:36 PM","Error Code":"9792309","Error Description":"Card Reader Error"},{"Terminal Number":"CS85718","Group":"Nevada Accounts","Market Partner":"Hella ATMs","Cust #":"02-316K900","Location":"Loading Zone Grill","Address":"2975 N Virginia St","City":"Reno","State":"NV","Zip":"89506","Status":"Activated","Error Time":"9/17/21 11:55:34 AM","Error Code":"2000400","Error Description":"Vault Door is Open"},{"Terminal Number":"CS85718","Group":"Nevada Accounts","Market Partner":"Hella ATMs","Cust #":"02-316K900","Location":"Loading Zone Grill","Address":"2975 N Virginia St","City":"Reno","State":"NV","Zip":"89506","Status":"Activated","Error Time":"9/23/21 6:02:23 PM","Error Code":"2000400","Error Description":"Vault Door is Open"},{"Terminal Number":"CS85718","Group":"Nevada Accounts","Market Partner":"Hella ATMs","Cust #":"02-316K900","Location":"Loading Zone Grill","Address":"2975 N Virginia St","City":"Reno","State":"NV","Zip":"89506","Status":"Activated","Error Time":"9/26/21 5:20:03 PM","Error Code":"2000400","Error Description":"Vault Door is Open"},{"Terminal Number":"CS85718","Group":"Nevada Accounts","Market Partner":"Hella ATMs","Cust #":"02-316K900","Location":"Loading Zone Grill","Address":"2975 N Virginia St","City":"Reno","State":"NV","Zip":"89506","Status":"Activated","Error Time":"10/10/21 2:28:26 PM","Error Code":"F000100","Error Description":"Number of Bill is not inputted"},{"Terminal Number":"CS85718","Group":"Nevada Accounts","Market Partner":"Hella ATMs","Cust #":"02-316K900","Location":"Loading Zone Grill","Address":"2975 N Virginia St","City":"Reno","State":"NV","Zip":"89506","Status":"Activated","Error Time":"10/23/21 4:38:44 PM","Error Code":"2000400","Error Description":"Vault Door is Open"},{"Terminal Number":"CS85718","Group":"Nevada Accounts","Market Partner":"Hella ATMs","Cust #":"02-316K900","Location":"Loading Zone Grill","Address":"2975 N Virginia St","City":"Reno","State":"NV","Zip":"89506","Status":"Activated","Error Time":"10/29/21 10:10:17 AM","Error Code":"2000400","Error Description":"Vault Door is Open"},{"Terminal Number":"CS85718","Group":"Nevada Accounts","Market Partner":"Hella ATMs","Cust #":"02-316K900","Location":"Loading Zone Grill","Address":"2975 N Virginia St","City":"Reno","State":"NV","Zip":"89506","Status":"Activated","Error Time":"11/3/21 10:25:17 AM","Error Code":"2000400","Error Description":"Vault Door is Open"},{"Terminal Number":"CS86766","Group":"Nevada Accounts","Market Partner":"Hella ATMs","Cust #":"02-316K900","Location":"Endless Ink","Address":"215 South Wells, Unit #A","City":"Reno","State":"NV","Zip":"89502","Status":"Activated","Error Time":"7/9/21 1:56:39 PM","Error Code":"2000400","Error Description":"Vault Door is Open"},{"Terminal Number":"CS86766","Group":"Nevada Accounts","Market Partner":"Hella ATMs","Cust #":"02-316K900","Location":"Endless Ink","Address":"215 South Wells, Unit #A","City":"Reno","State":"NV","Zip":"89502","Status":"Activated","Error Time":"7/9/21 5:18:54 PM","Error Code":"2000400","Error Description":"Vault Door is Open"},{"Terminal Number":"CS86766","Group":"Nevada Accounts","Market Partner":"Hella ATMs","Cust #":"02-316K900","Location":"Endless Ink","Address":"215 South Wells, Unit #A","City":"Reno","State":"NV","Zip":"89502","Status":"Activated","Error Time":"7/9/21 6:40:09 PM","Error Code":"2000400","Error Description":"Vault Door is Open"},{"Terminal Number":"CS86766","Group":"Nevada Accounts","Market Partner":"Hella ATMs","Cust #":"02-316K900","Location":"Endless Ink","Address":"215 South Wells, Unit #A","City":"Reno","State":"NV","Zip":"89502","Status":"Activated","Error Time":"7/11/21 12:29:39 AM","Error Code":"F000100","Error Description":"Number of Bill is not inputted"},{"Terminal Number":"CS86766","Group":"Nevada Accounts","Market Partner":"Hella ATMs","Cust #":"02-316K900","Location":"Endless Ink","Address":"215 South Wells, Unit #A","City":"Reno","State":"NV","Zip":"89502","Status":"Activated","Error Time":"7/24/21 2:54:10 PM","Error Code":"2000400","Error Description":"Vault Door is Open"},{"Terminal Number":"CS86766","Group":"Nevada Accounts","Market Partner":"Hella ATMs","Cust #":"02-316K900","Location":"Endless Ink","Address":"215 South Wells, Unit #A","City":"Reno","State":"NV","Zip":"89502","Status":"Activated","Error Time":"8/5/21 12:04:11 PM","Error Code":"2000400","Error Description":"Vault Door is Open"},{"Terminal Number":"CS86766","Group":"Nevada Accounts","Market Partner":"Hella ATMs","Cust #":"02-316K900","Location":"Endless Ink","Address":"215 South Wells, Unit #A","City":"Reno","State":"NV","Zip":"89502","Status":"Activated","Error Time":"8/12/21 1:53:22 PM","Error Code":"2000400","Error Description":"Vault Door is Open"},{"Terminal Number":"CS86766","Group":"Nevada Accounts","Market Partner":"Hella ATMs","Cust #":"02-316K900","Location":"Endless Ink","Address":"215 South Wells, Unit #A","City":"Reno","State":"NV","Zip":"89502","Status":"Activated","Error Time":"8/18/21 2:20:22 PM","Error Code":"2000400","Error Description":"Vault Door is Open"},{"Terminal Number":"CS86766","Group":"Nevada Accounts","Market Partner":"Hella ATMs","Cust #":"02-316K900","Location":"Endless Ink","Address":"215 South Wells, Unit #A","City":"Reno","State":"NV","Zip":"89502","Status":"Activated","Error Time":"8/30/21 1:48:25 PM","Error Code":"2000400","Error Description":"Vault Door is Open"},{"Terminal Number":"CS86766","Group":"Nevada Accounts","Market Partner":"Hella ATMs","Cust #":"02-316K900","Location":"Endless Ink","Address":"215 South Wells, Unit #A","City":"Reno","State":"NV","Zip":"89502","Status":"Activated","Error Time":"9/15/21 2:52:23 PM","Error Code":"2000400","Error Description":"Vault Door is Open"},{"Terminal Number":"CS86766","Group":"Nevada Accounts","Market Partner":"Hella ATMs","Cust #":"02-316K900","Location":"Endless Ink","Address":"215 South Wells, Unit #A","City":"Reno","State":"NV","Zip":"89502","Status":"Activated","Error Time":"9/22/21 12:46:53 PM","Error Code":"2000400","Error Description":"Vault Door is Open"},{"Terminal Number":"CS86766","Group":"Nevada Accounts","Market Partner":"Hella ATMs","Cust #":"02-316K900","Location":"Endless Ink","Address":"215 South Wells, Unit #A","City":"Reno","State":"NV","Zip":"89502","Status":"Activated","Error Time":"10/1/21 2:58:08 PM","Error Code":"2000400","Error Description":"Vault Door is Open"},{"Terminal Number":"CS86766","Group":"Nevada Accounts","Market Partner":"Hella ATMs","Cust #":"02-316K900","Location":"Endless Ink","Address":"215 South Wells, Unit #A","City":"Reno","State":"NV","Zip":"89502","Status":"Activated","Error Time":"10/7/21 11:09:57 AM","Error Code":"2000400","Error Description":"Vault Door is Open"},{"Terminal Number":"CS86766","Group":"Nevada Accounts","Market Partner":"Hella ATMs","Cust #":"02-316K900","Location":"Endless Ink","Address":"215 South Wells, Unit #A","City":"Reno","State":"NV","Zip":"89502","Status":"Activated","Error Time":"10/15/21 4:23:24 PM","Error Code":"2000400","Error Description":"Vault Door is Open"},{"Terminal Number":"CS86766","Group":"Nevada Accounts","Market Partner":"Hella ATMs","Cust #":"02-316K900","Location":"Endless Ink","Address":"215 South Wells, Unit #A","City":"Reno","State":"NV","Zip":"89502","Status":"Activated","Error Time":"10/27/21 1:00:26 PM","Error Code":"2000400","Error Description":"Vault Door is Open"},{"Terminal Number":"CS86766","Group":"Nevada Accounts","Market Partner":"Hella ATMs","Cust #":"02-316K900","Location":"Endless Ink","Address":"215 South Wells, Unit #A","City":"Reno","State":"NV","Zip":"89502","Status":"Activated","Error Time":"11/8/21 2:46:44 PM","Error Code":"2000400","Error Description":"Vault Door is Open"},{"Terminal Number":"CS86766","Group":"Nevada Accounts","Market Partner":"Hella ATMs","Cust #":"02-316K900","Location":"Endless Ink","Address":"215 South Wells, Unit #A","City":"Reno","State":"NV","Zip":"89502","Status":"Activated","Error Time":"11/26/21 11:31:06 AM","Error Code":"2000400","Error Description":"Vault Door is Open"},{"Terminal Number":"CS88004","Group":"Nevada Accounts","Market Partner":"Hella ATMs","Cust #":"02-316K900","Location":"Sugar Coated Salon","Address":"3641 KINGS ROW","City":"RENO","State":"NV","Zip":"89503","Status":"Activated","Error Time":"8/10/21 11:43:39 AM","Error Code":"REVERSAL","Error Description":"Reversal Trx"},{"Terminal Number":"CS88004","Group":"Nevada Accounts","Market Partner":"Hella ATMs","Cust #":"02-316K900","Location":"Sugar Coated Salon","Address":"3641 KINGS ROW","City":"RENO","State":"NV","Zip":"89503","Status":"Activated","Error Time":"8/10/21 11:44:02 AM","Error Code":"4004A00","Error Description":"Error of note jam (Separated rejection)"},{"Terminal Number":"RT73080","Group":"","Market Partner":"Hella ATMs","Cust #":"02-316K900","Location":"Barajas Tire","Address":"2255 Glendale #7","City":"Sparks","State":"NV","Zip":"89431","Status":"Activated","Error Time":"11/27/21 2:48:51 PM","Error Code":"00001","Error Description":"Hyosung - Vault Door Open"}]